CCSDS_OMM_VERS = 2.0
CREATION_DATE  = 
ORIGINATOR     = 

OBJECT_NAME    = UNKNOWN
OBJECT_ID      = 
CENTER_NAME    = EARTH
REF_FRAME      = TEME
TIME_SYSTEM    = UTC
MEAN_ELEMENT_THEORY = SGP/SGP4

EPOCH          = 2025-10-28T21:44:29.439456
MEAN_MOTION    = 13.32234459
ECCENTRICITY   = .0760675
INCLINATION    = 65.6716
RA_OF_ASC_NODE = 171.6244
ARG_OF_PERICENTER = 32.6247
MEAN_ANOMALY   = 331.9505

EPHEMERIS_TYPE = 0
CLASSIFICATION_TYPE = U
NORAD_CAT_ID   = 81864
ELEMENT_SET_NO = 999
REV_AT_EPOCH   = 54486
BSTAR          = .88693E-3
MEAN_MOTION_DOT = .2206E-4
MEAN_MOTION_DDOT = 0

CCSDS_OMM_VERS = 2.0
CREATION_DATE  = 
ORIGINATOR     = 

OBJECT_NAME    = UNKNOWN
OBJECT_ID      = 
CENTER_NAME    = EARTH
REF_FRAME      = TEME
TIME_SYSTEM    = UTC
MEAN_ELEMENT_THEORY = SGP/SGP4

EPOCH          = 2025-10-29T02:13:10.155360
MEAN_MOTION    = 13.87814871
ECCENTRICITY   = .0063954
INCLINATION    = 82.8046
RA_OF_ASC_NODE = 63.1467
ARG_OF_PERICENTER = 132.4307
MEAN_ANOMALY   = 348.9282

EPHEMERIS_TYPE = 0
CLASSIFICATION_TYPE = U
NORAD_CAT_ID   = 81865
ELEMENT_SET_NO = 999
REV_AT_EPOCH   = 60235
BSTAR          = .2083E-2
MEAN_MOTION_DOT = .2527E-4
MEAN_MOTION_DDOT = 0

CCSDS_OMM_VERS = 2.0
CREATION_DATE  = 
ORIGINATOR     = 

OBJECT_NAME    = UNKNOWN
OBJECT_ID      = 
CENTER_NAME    = EARTH
REF_FRAME      = TEME
TIME_SYSTEM    = UTC
MEAN_ELEMENT_THEORY = SGP/SGP4

EPOCH          = 2025-10-27T04:56:48.047424
MEAN_MOTION    = 13.76539965
ECCENTRICITY   = .0021533
INCLINATION    = 100.0433
RA_OF_ASC_NODE = 280.9726
ARG_OF_PERICENTER = 28.8890
MEAN_ANOMALY   = 331.3445

EPHEMERIS_TYPE = 0
CLASSIFICATION_TYPE = U
NORAD_CAT_ID   = 81893
ELEMENT_SET_NO = 999
REV_AT_EPOCH   = 59767
BSTAR          = .15524E-2
MEAN_MOTION_DOT = .1474E-4
MEAN_MOTION_DDOT = 0

CCSDS_OMM_VERS = 2.0
CREATION_DATE  = 
ORIGINATOR     = 

OBJECT_NAME    = UNKNOWN
OBJECT_ID      = 
CENTER_NAME    = EARTH
REF_FRAME      = TEME
TIME_SYSTEM    = UTC
MEAN_ELEMENT_THEORY = SGP/SGP4

EPOCH          = 2025-10-26T04:55:57.323712
MEAN_MOTION    = 13.19988988
ECCENTRICITY   = .0175141
INCLINATION    = 102.4165
RA_OF_ASC_NODE = 32.4576
ARG_OF_PERICENTER = 312.7003
MEAN_ANOMALY   = 45.9468

EPHEMERIS_TYPE = 0
CLASSIFICATION_TYPE = U
NORAD_CAT_ID   = 81899
ELEMENT_SET_NO = 999
REV_AT_EPOCH   = 57271
BSTAR          = .4478E-2
MEAN_MOTION_DOT = .1892E-4
MEAN_MOTION_DDOT = 0

CCSDS_OMM_VERS = 2.0
CREATION_DATE  = 
ORIGINATOR     = 

OBJECT_NAME    = UNKNOWN
OBJECT_ID      = 
CENTER_NAME    = EARTH
REF_FRAME      = TEME
TIME_SYSTEM    = UTC
MEAN_ELEMENT_THEORY = SGP/SGP4

EPOCH          = 2025-10-26T08:05:56.671008
MEAN_MOTION    = 13.14903195
ECCENTRICITY   = .0849516
INCLINATION    = 65.7062
RA_OF_ASC_NODE = 160.7212
ARG_OF_PERICENTER = 134.9826
MEAN_ANOMALY   = 232.3358

EPHEMERIS_TYPE = 0
CLASSIFICATION_TYPE = U
NORAD_CAT_ID   = 81921
ELEMENT_SET_NO = 999
REV_AT_EPOCH   = 1955
BSTAR          = .54748E-3
MEAN_MOTION_DOT = .1301E-4
MEAN_MOTION_DDOT = 0

CCSDS_OMM_VERS = 2.0
CREATION_DATE  = 
ORIGINATOR     = 

OBJECT_NAME    = UNKNOWN
OBJECT_ID      = 
CENTER_NAME    = EARTH
REF_FRAME      = TEME
TIME_SYSTEM    = UTC
MEAN_ELEMENT_THEORY = SGP/SGP4

EPOCH          = 2025-10-28T19:58:43.071744
MEAN_MOTION    = 12.42556863
ECCENTRICITY   = .06691
INCLINATION    = 66.4190
RA_OF_ASC_NODE = 239.0147
ARG_OF_PERICENTER = 12.9605
MEAN_ANOMALY   = 16.3294

EPHEMERIS_TYPE = 0
CLASSIFICATION_TYPE = U
NORAD_CAT_ID   = 81946
ELEMENT_SET_NO = 999
REV_AT_EPOCH   = 54230
BSTAR          = .75984E-3
MEAN_MOTION_DOT = .178E-5
MEAN_MOTION_DDOT = 0

CCSDS_OMM_VERS = 2.0
CREATION_DATE  = 
ORIGINATOR     = 

OBJECT_NAME    = UNKNOWN
OBJECT_ID      = 
CENTER_NAME    = EARTH
REF_FRAME      = TEME
TIME_SYSTEM    = UTC
MEAN_ELEMENT_THEORY = SGP/SGP4

EPOCH          = 2025-10-29T16:57:08.987328
MEAN_MOTION    = 14.52062274
ECCENTRICITY   = .0382849
INCLINATION    = 66.0746
RA_OF_ASC_NODE = 290.9679
ARG_OF_PERICENTER = 170.1603
MEAN_ANOMALY   = 190.7287

EPHEMERIS_TYPE = 0
CLASSIFICATION_TYPE = U
NORAD_CAT_ID   = 81947
ELEMENT_SET_NO = 999
REV_AT_EPOCH   = 62462
BSTAR          = .53496E-3
MEAN_MOTION_DOT = .5621E-4
MEAN_MOTION_DDOT = 0

CCSDS_OMM_VERS = 2.0
CREATION_DATE  = 
ORIGINATOR     = 

OBJECT_NAME    = UNKNOWN
OBJECT_ID      = 
CENTER_NAME    = EARTH
REF_FRAME      = TEME
TIME_SYSTEM    = UTC
MEAN_ELEMENT_THEORY = SGP/SGP4

EPOCH          = 2025-10-30T12:54:33.470496
MEAN_MOTION    = 13.95755360
ECCENTRICITY   = .002997
INCLINATION    = 66.5865
RA_OF_ASC_NODE = 6.0696
ARG_OF_PERICENTER = 122.6852
MEAN_ANOMALY   = 237.7124

EPHEMERIS_TYPE = 0
CLASSIFICATION_TYPE = U
NORAD_CAT_ID   = 81964
ELEMENT_SET_NO = 999
REV_AT_EPOCH   = 60801
BSTAR          = .28788E-3
MEAN_MOTION_DOT = .315E-5
MEAN_MOTION_DDOT = 0

CCSDS_OMM_VERS = 2.0
CREATION_DATE  = 
ORIGINATOR     = 

OBJECT_NAME    = UNKNOWN
OBJECT_ID      = 
CENTER_NAME    = EARTH
REF_FRAME      = TEME
TIME_SYSTEM    = UTC
MEAN_ELEMENT_THEORY = SGP/SGP4

EPOCH          = 2025-10-30T02:05:42.484128
MEAN_MOTION    = 15.09737686
ECCENTRICITY   = .0005498
INCLINATION    = 86.6909
RA_OF_ASC_NODE = 172.3509
ARG_OF_PERICENTER = 11.8313
MEAN_ANOMALY   = 348.3053

EPHEMERIS_TYPE = 0
CLASSIFICATION_TYPE = U
NORAD_CAT_ID   = 81969
ELEMENT_SET_NO = 999
REV_AT_EPOCH   = 43358
BSTAR          = .78454E-3
MEAN_MOTION_DOT = .12691E-3
MEAN_MOTION_DDOT = 0

CCSDS_OMM_VERS = 2.0
CREATION_DATE  = 
ORIGINATOR     = 

OBJECT_NAME    = UNKNOWN
OBJECT_ID      = 
CENTER_NAME    = EARTH
REF_FRAME      = TEME
TIME_SYSTEM    = UTC
MEAN_ELEMENT_THEORY = SGP/SGP4

EPOCH          = 2025-10-28T02:34:49.378080
MEAN_MOTION    = 14.02971037
ECCENTRICITY   = .0521387
INCLINATION    = 65.7452
RA_OF_ASC_NODE = 243.3189
ARG_OF_PERICENTER = 319.4334
MEAN_ANOMALY   = 36.8952

EPHEMERIS_TYPE = 0
CLASSIFICATION_TYPE = U
NORAD_CAT_ID   = 81995
ELEMENT_SET_NO = 999
REV_AT_EPOCH   = 59782
BSTAR          = .27603E-2
MEAN_MOTION_DOT = .14607E-3
MEAN_MOTION_DDOT = 0

CCSDS_OMM_VERS = 2.0
CREATION_DATE  = 
ORIGINATOR     = 

OBJECT_NAME    = UNKNOWN
OBJECT_ID      = 
CENTER_NAME    = EARTH
REF_FRAME      = TEME
TIME_SYSTEM    = UTC
MEAN_ELEMENT_THEORY = SGP/SGP4

EPOCH          = 2025-10-30T04:45:55.332576
MEAN_MOTION    = 14.32066456
ECCENTRICITY   = .0232649
INCLINATION    = 97.9265
RA_OF_ASC_NODE = 95.5615
ARG_OF_PERICENTER = 214.2563
MEAN_ANOMALY   = 144.3431

EPHEMERIS_TYPE = 0
CLASSIFICATION_TYPE = U
NORAD_CAT_ID   = 82043
ELEMENT_SET_NO = 999
REV_AT_EPOCH   = 56761
BSTAR          = .17626E-2
MEAN_MOTION_DOT = .6348E-4
MEAN_MOTION_DDOT = 0

CCSDS_OMM_VERS = 2.0
CREATION_DATE  = 
ORIGINATOR     = 

OBJECT_NAME    = UNKNOWN
OBJECT_ID      = 
CENTER_NAME    = EARTH
REF_FRAME      = TEME
TIME_SYSTEM    = UTC
MEAN_ELEMENT_THEORY = SGP/SGP4

EPOCH          = 2025-10-29T12:06:52.873632
MEAN_MOTION    = 14.35201171
ECCENTRICITY   = .0092298
INCLINATION    = 98.7489
RA_OF_ASC_NODE = 27.3702
ARG_OF_PERICENTER = 31.3076
MEAN_ANOMALY   = 329.3559

EPHEMERIS_TYPE = 0
CLASSIFICATION_TYPE = U
NORAD_CAT_ID   = 82051
ELEMENT_SET_NO = 999
REV_AT_EPOCH   = 56606
BSTAR          = .19989E-2
MEAN_MOTION_DOT = .5956E-4
MEAN_MOTION_DDOT = 0

