UNKNOWN                 
1 81864U          25301.90589629  .00002206  00000+0  88693-3 0  9992
2 81864  65.6716 171.6244 0760675  32.6247 331.9505 13.32234459544869
UNKNOWN                 
1 81865U          25302.09247865  .00002527  00000+0  20830-2 0  9991
2 81865  82.8046  63.1467 0063954 132.4307 348.9282 13.87814871602352
UNKNOWN                 
1 81893U          25300.20611166  .00001474  00000+0  15524-2 0  9996
2 81893 100.0433 280.9726 0021533  28.8890 331.3445 13.76539965597676
UNKNOWN                 
1 81899U          25299.20552458  .00001892  00000+0  44780-2 0  9997
2 81899 102.4165  32.4576 0175141 312.7003  45.9468 13.19988988572710
UNKNOWN                 
1 81921U          25299.33746147  .00001301  00000+0  54748-3 0  9998
2 81921  65.7062 160.7212 0849516 134.9826 232.3358 13.14903195 19556
UNKNOWN                 
1 81946U          25301.83244296  .00000178  00000+0  75984-3 0  9998
2 81946  66.4190 239.0147 0669100  12.9605  16.3294 12.42556863542308
UNKNOWN                 
1 81947U          25302.70635402  .00005621  00000+0  53496-3 0  9991
2 81947  66.0746 290.9679 0382849 170.1603 190.7287 14.52062274624621
UNKNOWN                 
1 81964U          25303.53788739  .00000315  00000+0  28788-3 0  9995
2 81964  66.5865   6.0696 0029970 122.6852 237.7124 13.95755360608011
UNKNOWN                 
1 81969U          25303.08729727  .00012691  00000+0  78454-3 0  9997
2 81969  86.6909 172.3509 0005498  11.8313 348.3053 15.09737686433584
UNKNOWN                 
1 81995U          25301.10751595  .00014607  00000+0  27603-2 0  9993
2 81995  65.7452 243.3189 0521387 319.4334  36.8952 14.02971037597824
UNKNOWN                 
1 82043U          25303.19855709  .00006348  00000+0  17626-2 0  9998
2 82043  97.9265  95.5615 0232649 214.2563 144.3431 14.32066456567619
UNKNOWN                 
1 82051U          25302.50477863  .00005956  00000+0  19989-2 0  9990
2 82051  98.7489  27.3702 0092298  31.3076 329.3559 14.35201171566068
